{
  "type": "FeatureCollection",
  "features": [
    {
      "type": "Feature",
      "properties": {
        "norad_id": 43262,
        "name": "GAOFEN-1 04",
        "group": "resource",
        "lat": 74.04626483755857,
        "lon": 23.20459550845924,
        "alt_km": 633.1050384791479,
        "timestamp": "2025-12-21T03:56:50.512169+00:00",
        "meta_object_name": "GAOFEN-1 04",
        "meta_object_id": "2018-031D",
        "meta_epoch": "2025-12-20T21:05:50.694144",
        "meta_mean_motion": 14.76421869,
        "meta_eccentricity": 7.15e-05,
        "meta_inclination": 98.0803,
        "meta_ra_of_asc_node": 52.7179,
        "meta_arg_of_pericenter": 52.6708,
        "meta_mean_anomaly": 307.4566,
        "meta_ephemeris_type": 0,
        "meta_classification_type": "U",
        "meta_norad_cat_id": 43262,
        "meta_element_set_no": 999,
        "meta_rev_at_epoch": 41637,
        "meta_bstar": 0.00010546,
        "meta_mean_motion_dot": 6.81e-06,
        "meta_mean_motion_ddot": 0,
        "tle_line1": "1 43262U 18031D   25354.87905896  .00000681  00000+0  10546-3 0  9994",
        "tle_line2": "2 43262  98.0803  52.7179 0000715  52.6708 307.4566 14.76421869416379"
      },
      "geometry": {
        "type": "Point",
        "coordinates": [
          23.20459550845924,
          74.04626483755857
        ]
      }
    },
    {
      "type": "Feature",
      "properties": {
        "norad_id": 43437,
        "name": "SENTINEL-3B",
        "group": "resource",
        "lat": 2.2586826460417364,
        "lon": -119.42836859706219,
        "alt_km": 805.1815242453386,
        "timestamp": "2025-12-21T03:56:50.512178+00:00",
        "meta_object_name": "SENTINEL-3B",
        "meta_object_id": "2018-039A",
        "meta_epoch": "2025-12-20T18:42:07.841952",
        "meta_mean_motion": 14.26736862,
        "meta_eccentricity": 0.0001636,
        "meta_inclination": 98.6257,
        "meta_ra_of_asc_node": 59.849,
        "meta_arg_of_pericenter": 93.7812,
        "meta_mean_anomaly": 266.3555,
        "meta_ephemeris_type": 0,
        "meta_classification_type": "U",
        "meta_norad_cat_id": 43437,
        "meta_element_set_no": 999,
        "meta_rev_at_epoch": 39868,
        "meta_bstar": 5.9275e-05,
        "meta_mean_motion_dot": 1e-06,
        "meta_mean_motion_ddot": 0,
        "tle_line1": "1 43437U 18039A   25354.77925743  .00000100  00000+0  59275-4 0  9997",
        "tle_line2": "2 43437  98.6257  59.8490 0001636  93.7812 266.3555 14.26736862398682"
      },
      "geometry": {
        "type": "Point",
        "coordinates": [
          -119.42836859706219,
          2.2586826460417364
        ]
      }
    },
    {
      "type": "Feature",
      "properties": {
        "norad_id": 43461,
        "name": "GAOFEN-5 01",
        "group": "resource",
        "lat": 71.39949807931984,
        "lon": 164.4372339229121,
        "alt_km": 685.2904696973237,
        "timestamp": "2025-12-21T03:56:50.512187+00:00",
        "meta_object_name": "GAOFEN-5 01",
        "meta_object_id": "2018-043A",
        "meta_epoch": "2025-12-20T19:14:21.410016",
        "meta_mean_motion": 14.60417662,
        "meta_eccentricity": 5.25e-05,
        "meta_inclination": 98.4337,
        "meta_ra_of_asc_node": 317.91,
        "meta_arg_of_pericenter": 287.5281,
        "meta_mean_anomaly": 72.5862,
        "meta_ephemeris_type": 0,
        "meta_classification_type": "U",
        "meta_norad_cat_id": 43461,
        "meta_element_set_no": 999,
        "meta_rev_at_epoch": 40565,
        "meta_bstar": 7.1479e-05,
        "meta_mean_motion_dot": 2.97e-06,
        "meta_mean_motion_ddot": 0,
        "tle_line1": "1 43461U 18043A   25354.80163669  .00000297  00000+0  71479-4 0  9991",
        "tle_line2": "2 43461  98.4337 317.9100 0000525 287.5281  72.5862 14.60417662405657"
      },
      "geometry": {
        "type": "Point",
        "coordinates": [
          164.4372339229121,
          71.39949807931984
        ]
      }
    },
    {
      "type": "Feature",
      "properties": {
        "norad_id": 43484,
        "name": "GAOFEN-6",
        "group": "resource",
        "lat": -50.430815163918155,
        "lon": -130.40303838208425,
        "alt_km": 655.8821481646837,
        "timestamp": "2025-12-21T03:56:50.512196+00:00",
        "meta_object_name": "GAOFEN-6",
        "meta_object_id": "2018-048A",
        "meta_epoch": "2025-12-20T20:23:56.829984",
        "meta_mean_motion": 14.76578338,
        "meta_eccentricity": 0.0012848,
        "meta_inclination": 97.8028,
        "meta_ra_of_asc_node": 58.8447,
        "meta_arg_of_pericenter": 39.6587,
        "meta_mean_anomaly": 320.556,
        "meta_ephemeris_type": 0,
        "meta_classification_type": "U",
        "meta_norad_cat_id": 43484,
        "meta_element_set_no": 999,
        "meta_rev_at_epoch": 40707,
        "meta_bstar": 3.0691e-05,
        "meta_mean_motion_dot": 1.65e-06,
        "meta_mean_motion_ddot": 0,
        "tle_line1": "1 43484U 18048A   25354.84996331  .00000165  00000+0  30691-4 0  9990",
        "tle_line2": "2 43484  97.8028  58.8447 0012848  39.6587 320.5560 14.76578338407077"
      },
      "geometry": {
        "type": "Point",
        "coordinates": [
          -130.40303838208425,
          -50.430815163918155
        ]
      }
    },
    {
      "type": "Feature",
      "properties": {
        "norad_id": 43585,
        "name": "GAOFEN-11 01",
        "group": "resource",
        "lat": 78.31152303524709,
        "lon": 20.635378221551857,
        "alt_km": 413.72732200320297,
        "timestamp": "2025-12-21T03:56:50.512207+00:00",
        "meta_object_name": "GAOFEN-11 01",
        "meta_object_id": "2018-063A",
        "meta_epoch": "2025-12-20T21:24:00.465984",
        "meta_mean_motion": 15.49427725,
        "meta_eccentricity": 0.0003915,
        "meta_inclination": 97.1558,
        "meta_ra_of_asc_node": 57.7583,
        "meta_arg_of_pericenter": 270.7659,
        "meta_mean_anomaly": 89.3144,
        "meta_ephemeris_type": 0,
        "meta_classification_type": "U",
        "meta_norad_cat_id": 43585,
        "meta_element_set_no": 999,
        "meta_rev_at_epoch": 41268,
        "meta_bstar": 0.00010575,
        "meta_mean_motion_dot": 5.717e-05,
        "meta_mean_motion_ddot": 0,
        "tle_line1": "1 43585U 18063A   25354.89167206  .00005717  00000+0  10575-3 0  9991",
        "tle_line2": "2 43585  97.1558  57.7583 0003915 270.7659  89.3144 15.49427725412687"
      },
      "geometry": {
        "type": "Point",
        "coordinates": [
          20.635378221551857,
          78.31152303524709
        ]
      }
    },
    {
      "type": "Feature",
      "properties": {
        "norad_id": 43613,
        "name": "ICESAT-2",
        "group": "resource",
        "lat": -76.74821649089488,
        "lon": 54.457570797217144,
        "alt_km": 489.97578524651453,
        "timestamp": "2025-12-21T03:56:50.512216+00:00",
        "meta_object_name": "ICESAT-2",
        "meta_object_id": "2018-070A",
        "meta_epoch": "2025-12-20T18:58:08.984064",
        "meta_mean_motion": 15.28236525,
        "meta_eccentricity": 0.0002879,
        "meta_inclination": 92.0046,
        "meta_ra_of_asc_node": 242.9099,
        "meta_arg_of_pericenter": 120.5935,
        "meta_mean_anomaly": 239.5598,
        "meta_ephemeris_type": 0,
        "meta_classification_type": "U",
        "meta_norad_cat_id": 43613,
        "meta_element_set_no": 999,
        "meta_rev_at_epoch": 40521,
        "meta_bstar": 0.00030116,
        "meta_mean_motion_dot": 8.284e-05,
        "meta_mean_motion_ddot": 0,
        "tle_line1": "1 43613U 18070A   25354.79038176  .00008284  00000+0  30116-3 0  9998",
        "tle_line2": "2 43613  92.0046 242.9099 0002879 120.5935 239.5598 15.28236525405218"
      },
      "geometry": {
        "type": "Point",
        "coordinates": [
          54.457570797217144,
          -76.74821649089488
        ]
      }
    },
    {
      "type": "Feature",
      "properties": {
        "norad_id": 43719,
        "name": "HYSIS",
        "group": "resource",
        "lat": -30.200216556363955,
        "lon": 62.80191338446238,
        "alt_km": 639.4044779575679,
        "timestamp": "2025-12-21T03:56:50.512225+00:00",
        "meta_object_name": "HYSIS",
        "meta_object_id": "2018-096A",
        "meta_epoch": "2025-12-20T19:57:53.230176",
        "meta_mean_motion": 14.78665944,
        "meta_eccentricity": 0.0001047,
        "meta_inclination": 98.0094,
        "meta_ra_of_asc_node": 57.7703,
        "meta_arg_of_pericenter": 51.3244,
        "meta_mean_anomaly": 308.806,
        "meta_ephemeris_type": 0,
        "meta_classification_type": "U",
        "meta_norad_cat_id": 43719,
        "meta_element_set_no": 999,
        "meta_rev_at_epoch": 38106,
        "meta_bstar": 0.00012734,
        "meta_mean_motion_dot": 8.81e-06,
        "meta_mean_motion_ddot": 0,
        "tle_line1": "1 43719U 18096A   25354.83186609  .00000881  00000+0  12734-3 0  9994",
        "tle_line2": "2 43719  98.0094  57.7703 0001047  51.3244 308.8060 14.78665944381063"
      },
      "geometry": {
        "type": "Point",
        "coordinates": [
          62.80191338446238,
          -30.200216556363955
        ]
      }
    }
  ]
}